[{"OBJECT_NAME":"STARLINK-30427","OBJECT_ID":"2023-144B","EPOCH":"2026-03-08T16:14:13.384320","MEAN_MOTION":15.27578133,"ECCENTRICITY":0.00014763,"INCLINATION":43.0007,"RA_OF_ASC_NODE":290.8198,"ARG_OF_PERICENTER":234.3471,"MEAN_ANOMALY":125.7243,"EPHEMERIS_TYPE":0,"CLASSIFICATION_TYPE":"U","NORAD_CAT_ID":57865,"ELEMENT_SET_NO":999,"REV_AT_EPOCH":13744,"BSTAR":1.0829603e-5,"MEAN_MOTION_DOT":3.6e-7,"MEAN_MOTION_DDOT":0},{"OBJECT_NAME":"COSMOS 2588","OBJECT_ID":"2025-109A","EPOCH":"2026-03-09T19:28:59.107008","MEAN_MOTION":15.29122656,"ECCENTRICITY":0.0005019,"INCLINATION":72.9704,"RA_OF_ASC_NODE":73.5401,"ARG_OF_PERICENTER":308.678,"MEAN_ANOMALY":51.3966,"EPHEMERIS_TYPE":0,"CLASSIFICATION_TYPE":"U","NORAD_CAT_ID":64095,"ELEMENT_SET_NO":999,"REV_AT_EPOCH":4442,"BSTAR":0.00032611,"MEAN_MOTION_DOT":9.169e-5,"MEAN_MOTION_DDOT":0}]
